[{"OBJECT_NAME":"FENGYUN 1C DEB","OBJECT_ID":"1999-025QC","EPOCH":"2026-03-06T15:08:38.604768","MEAN_MOTION":13.92566433,"ECCENTRICITY":0.00899885,"INCLINATION":99.3463,"RA_OF_ASC_NODE":121.7583,"ARG_OF_PERICENTER":311.4128,"MEAN_ANOMALY":207.8204,"EPHEMERIS_TYPE":0,"CLASSIFICATION_TYPE":"U","NORAD_CAT_ID":30075,"ELEMENT_SET_NO":999,"REV_AT_EPOCH":97232,"BSTAR":0.00012887613,"MEAN_MOTION_DOT":1.25e-6,"MEAN_MOTION_DDOT":0},{"OBJECT_NAME":"FENGYUN 1C DEB","OBJECT_ID":"1999-025QD","EPOCH":"2026-03-05T21:49:50.723040","MEAN_MOTION":13.76362772,"ECCENTRICITY":0.01739949,"INCLINATION":99.2484,"RA_OF_ASC_NODE":54.238,"ARG_OF_PERICENTER":234.5168,"MEAN_ANOMALY":154.1716,"EPHEMERIS_TYPE":0,"CLASSIFICATION_TYPE":"U","NORAD_CAT_ID":30076,"ELEMENT_SET_NO":999,"REV_AT_EPOCH":96038,"BSTAR":0.00028052935,"MEAN_MOTION_DOT":2.62e-6,"MEAN_MOTION_DDOT":0},{"OBJECT_NAME":"FENGYUN 1C DEB","OBJECT_ID":"1999-025QE","EPOCH":"2026-03-06T13:17:00.861216","MEAN_MOTION":14.07093583,"ECCENTRICITY":0.00219604,"INCLINATION":98.7552,"RA_OF_ASC_NODE":83.5756,"ARG_OF_PERICENTER":31.0211,"MEAN_ANOMALY":135.5598,"EPHEMERIS_TYPE":0,"CLASSIFICATION_TYPE":"U","NORAD_CAT_ID":30077,"ELEMENT_SET_NO":999,"REV_AT_EPOCH":98291,"BSTAR":-1.2276043e-5,"MEAN_MOTION_DOT":-6.3e-7,"MEAN_MOTION_DDOT":0},{"OBJECT_NAME":"FENGYUN 1C DEB","OBJECT_ID":"1999-025QF","EPOCH":"2026-03-06T11:56:43.286208","MEAN_MOTION":14.23734177,"ECCENTRICITY":0.00501902,"INCLINATION":98.8245,"RA_OF_ASC_NODE":145.6476,"ARG_OF_PERICENTER":42.1133,"MEAN_ANOMALY":333.7168,"EPHEMERIS_TYPE":0,"CLASSIFICATION_TYPE":"U","NORAD_CAT_ID":30078,"ELEMENT_SET_NO":999,"REV_AT_EPOCH":98305,"BSTAR":0.001769562,"MEAN_MOTION_DOT":4.052e-5,"MEAN_MOTION_DDOT":0},{"OBJECT_NAME":"FENGYUN 1C DEB","OBJECT_ID":"1999-025QG","EPOCH":"2026-03-06T02:49:40.526688","MEAN_MOTION":14.00843622,"ECCENTRICITY":0.00871407,"INCLINATION":99.0137,"RA_OF_ASC_NODE":124.652,"ARG_OF_PERICENTER":69.8056,"MEAN_ANOMALY":320.5378,"EPHEMERIS_TYPE":0,"CLASSIFICATION_TYPE":"U","NORAD_CAT_ID":30079,"ELEMENT_SET_NO":999,"REV_AT_EPOCH":97705,"BSTAR":0.00018052196,"MEAN_MOTION_DOT":2.35e-6,"MEAN_MOTION_DDOT":0},{"OBJECT_NAME":"FENGYUN 1C DEB","OBJECT_ID":"1999-025QH","EPOCH":"2026-03-05T22:38:37.572288","MEAN_MOTION":14.10908713,"ECCENTRICITY":0.01324614,"INCLINATION":98.7101,"RA_OF_ASC_NODE":47.8972,"ARG_OF_PERICENTER":183.7359,"MEAN_ANOMALY":238.0997,"EPHEMERIS_TYPE":0,"CLASSIFICATION_TYPE":"U","NORAD_CAT_ID":30080,"ELEMENT_SET_NO":999,"REV_AT_EPOCH":98411,"BSTAR":0.00013138986,"MEAN_MOTION_DOT":2.13e-6,"MEAN_MOTION_DDOT":0},{"OBJECT_NAME":"FENGYUN 1C DEB","OBJECT_ID":"1999-025QJ","EPOCH":"2026-03-06T06:48:13.830624","MEAN_MOTION":13.98373705,"ECCENTRICITY":0.00774094,"INCLINATION":98.9291,"RA_OF_ASC_NODE":64.297,"ARG_OF_PERICENTER":107.1951,"MEAN_ANOMALY":270.7773,"EPHEMERIS_TYPE":0,"CLASSIFICATION_TYPE":"U","NORAD_CAT_ID":30081,"ELEMENT_SET_NO":999,"REV_AT_EPOCH":97522,"BSTAR":0.00064062357,"MEAN_MOTION_DOT":8.97e-6,"MEAN_MOTION_DDOT":0},{"OBJECT_NAME":"FENGYUN 1C DEB","OBJECT_ID":"1999-025QK","EPOCH":"2026-03-06T09:02:42.245376","MEAN_MOTION":15.21502242,"ECCENTRICITY":0.00585614,"INCLINATION":98.8238,"RA_OF_ASC_NODE":11.8734,"ARG_OF_PERICENTER":246.4132,"MEAN_ANOMALY":113.0943,"EPHEMERIS_TYPE":0,"CLASSIFICATION_TYPE":"U","NORAD_CAT_ID":30082,"ELEMENT_SET_NO":999,"REV_AT_EPOCH":2562,"BSTAR":0.0015980013,"MEAN_MOTION_DOT":0.00037751,"MEAN_MOTION_DDOT":0},{"OBJECT_NAME":"FENGYUN 1C DEB","OBJECT_ID":"1999-025QP","EPOCH":"2026-03-06T14:12:50.208192","MEAN_MOTION":14.03930226,"ECCENTRICITY":0.00601236,"INCLINATION":98.8996,"RA_OF_ASC_NODE":102.5818,"ARG_OF_PERICENTER":260.2864,"MEAN_ANOMALY":253.7832,"EPHEMERIS_TYPE":0,"CLASSIFICATION_TYPE":"U","NORAD_CAT_ID":30086,"ELEMENT_SET_NO":999,"REV_AT_EPOCH":97872,"BSTAR":0.00023566294,"MEAN_MOTION_DOT":3.34e-6,"MEAN_MOTION_DDOT":0},{"OBJECT_NAME":"FENGYUN 1C DEB","OBJECT_ID":"1999-025QQ","EPOCH":"2026-03-06T13:26:52.116288","MEAN_MOTION":14.35915917,"ECCENTRICITY":0.02278911,"INCLINATION":98.37,"RA_OF_ASC_NODE":100.4964,"ARG_OF_PERICENTER":230.8174,"MEAN_ANOMALY":285.1614,"EPHEMERIS_TYPE":0,"CLASSIFICATION_TYPE":"U","NORAD_CAT_ID":30087,"ELEMENT_SET_NO":999,"REV_AT_EPOCH":99898,"BSTAR":0.00029909034,"MEAN_MOTION_DOT":1.114e-5,"MEAN_MOTION_DDOT":0},{"OBJECT_NAME":"FENGYUN 1C DEB","OBJECT_ID":"1999-025QR","EPOCH":"2026-03-06T10:16:07.747680","MEAN_MOTION":14.36165103,"ECCENTRICITY":0.02013134,"INCLINATION":98.365,"RA_OF_ASC_NODE":52.2411,"ARG_OF_PERICENTER":357.7479,"MEAN_ANOMALY":154.739,"EPHEMERIS_TYPE":0,"CLASSIFICATION_TYPE":"U","NORAD_CAT_ID":30088,"ELEMENT_SET_NO":999,"REV_AT_EPOCH":99873,"BSTAR":0.00079961041,"MEAN_MOTION_DOT":2.889e-5,"MEAN_MOTION_DDOT":0},{"OBJECT_NAME":"FENGYUN 1C DEB","OBJECT_ID":"1999-025QS","EPOCH":"2026-03-06T13:05:47.952096","MEAN_MOTION":14.30435474,"ECCENTRICITY":0.00735192,"INCLINATION":98.9011,"RA_OF_ASC_NODE":337.8838,"ARG_OF_PERICENTER":327.1803,"MEAN_ANOMALY":207.6922,"EPHEMERIS_TYPE":0,"CLASSIFICATION_TYPE":"U","NORAD_CAT_ID":30089,"ELEMENT_SET_NO":999,"REV_AT_EPOCH":99677,"BSTAR":0.00035683528,"MEAN_MOTION_DOT":9.09e-6,"MEAN_MOTION_DDOT":0},{"OBJECT_NAME":"FENGYUN 1C DEB","OBJECT_ID":"1999-025QT","EPOCH":"2026-03-06T11:15:08.216640","MEAN_MOTION":14.29274713,"ECCENTRICITY":0.00570686,"INCLINATION":99.415,"RA_OF_ASC_NODE":250.1866,"ARG_OF_PERICENTER":231.4806,"MEAN_ANOMALY":157.6,"EPHEMERIS_TYPE":0,"CLASSIFICATION_TYPE":"U","NORAD_CAT_ID":30090,"ELEMENT_SET_NO":999,"REV_AT_EPOCH":99466,"BSTAR":0.00074341308,"MEAN_MOTION_DOT":1.874e-5,"MEAN_MOTION_DDOT":0},{"OBJECT_NAME":"FENGYUN 1C DEB","OBJECT_ID":"1999-025QV","EPOCH":"2026-03-05T11:24:09.149760","MEAN_MOTION":14.39472286,"ECCENTRICITY":0.0082747,"INCLINATION":98.9281,"RA_OF_ASC_NODE":252.1213,"ARG_OF_PERICENTER":6.684,"MEAN_ANOMALY":55.7719,"EPHEMERIS_TYPE":0,"CLASSIFICATION_TYPE":"U","NORAD_CAT_ID":30092,"ELEMENT_SET_NO":999,"REV_AT_EPOCH":99939,"BSTAR":0.00050632,"MEAN_MOTION_DOT":1.593e-5,"MEAN_MOTION_DDOT":0},{"OBJECT_NAME":"FENGYUN 1C DEB","OBJECT_ID":"1999-025QW","EPOCH":"2026-03-06T14:48:21.993408","MEAN_MOTION":14.44231911,"ECCENTRICITY":0.00702136,"INCLINATION":98.8615,"RA_OF_ASC_NODE":308.6969,"ARG_OF_PERICENTER":86.2859,"MEAN_ANOMALY":306.8927,"EPHEMERIS_TYPE":0,"CLASSIFICATION_TYPE":"U","NORAD_CAT_ID":30093,"ELEMENT_SET_NO":999,"REV_AT_EPOCH":15,"BSTAR":0.00091692522,"MEAN_MOTION_DOT":3.197e-5,"MEAN_MOTION_DDOT":0},{"OBJECT_NAME":"FENGYUN 1C DEB","OBJECT_ID":"1999-025QY","EPOCH":"2026-03-06T13:50:03.567552","MEAN_MOTION":14.85013128,"ECCENTRICITY":0.01595079,"INCLINATION":99.2254,"RA_OF_ASC_NODE":4.6357,"ARG_OF_PERICENTER":68.3461,"MEAN_ANOMALY":293.4652,"EPHEMERIS_TYPE":0,"CLASSIFICATION_TYPE":"U","NORAD_CAT_ID":30095,"ELEMENT_SET_NO":999,"REV_AT_EPOCH":577,"BSTAR":0.0025332505,"MEAN_MOTION_DOT":0.00027189,"MEAN_MOTION_DDOT":0},{"OBJECT_NAME":"FENGYUN 1C DEB","OBJECT_ID":"1999-025QZ","EPOCH":"2026-03-06T04:21:05.304096","MEAN_MOTION":14.31857796,"ECCENTRICITY":0.00788192,"INCLINATION":99.1365,"RA_OF_ASC_NODE":153.8558,"ARG_OF_PERICENTER":351.7101,"MEAN_ANOMALY":8.2773,"EPHEMERIS_TYPE":0,"CLASSIFICATION_TYPE":"U","NORAD_CAT_ID":30096,"ELEMENT_SET_NO":999,"REV_AT_EPOCH":99740,"BSTAR":0.00027394216,"MEAN_MOTION_DOT":7.09e-6,"MEAN_MOTION_DDOT":0},{"OBJECT_NAME":"FENGYUN 1C DEB","OBJECT_ID":"1999-025RC","EPOCH":"2026-03-06T04:41:32.033760","MEAN_MOTION":14.26072033,"ECCENTRICITY":0.0061384,"INCLINATION":98.5266,"RA_OF_ASC_NODE":140.3474,"ARG_OF_PERICENTER":2.3468,"MEAN_ANOMALY":16.3602,"EPHEMERIS_TYPE":0,"CLASSIFICATION_TYPE":"U","NORAD_CAT_ID":30099,"ELEMENT_SET_NO":999,"REV_AT_EPOCH":99379,"BSTAR":0.00026345953,"MEAN_MOTION_DOT":5.99e-6,"MEAN_MOTION_DDOT":0},{"OBJECT_NAME":"FENGYUN 1C DEB","OBJECT_ID":"1999-025RF","EPOCH":"2026-03-06T11:34:11.227296","MEAN_MOTION":14.22235165,"ECCENTRICITY":0.0142645,"INCLINATION":98.3807,"RA_OF_ASC_NODE":74.1477,"ARG_OF_PERICENTER":115.0429,"MEAN_ANOMALY":45.8924,"EPHEMERIS_TYPE":0,"CLASSIFICATION_TYPE":"U","NORAD_CAT_ID":30102,"ELEMENT_SET_NO":999,"REV_AT_EPOCH":99148,"BSTAR":0.00022768682,"MEAN_MOTION_DOT":5.21e-6,"MEAN_MOTION_DDOT":0},{"OBJECT_NAME":"FENGYUN 1C DEB","OBJECT_ID":"1999-025RG","EPOCH":"2026-03-06T10:56:27.782304","MEAN_MOTION":14.25108497,"ECCENTRICITY":0.00620306,"INCLINATION":99.2555,"RA_OF_ASC_NODE":56.4006,"ARG_OF_PERICENTER":240.7711,"MEAN_ANOMALY":273.3984,"EPHEMERIS_TYPE":0,"CLASSIFICATION_TYPE":"U","NORAD_CAT_ID":30103,"ELEMENT_SET_NO":999,"REV_AT_EPOCH":99111,"BSTAR":0.00056457861,"MEAN_MOTION_DOT":1.302e-5,"MEAN_MOTION_DDOT":0},{"OBJECT_NAME":"FENGYUN 1C DEB","OBJECT_ID":"1999-025RH","EPOCH":"2026-03-06T00:23:53.025216","MEAN_MOTION":14.25976054,"ECCENTRICITY":0.00726401,"INCLINATION":98.3606,"RA_OF_ASC_NODE":263.2801,"ARG_OF_PERICENTER":223.2282,"MEAN_ANOMALY":290.6234,"EPHEMERIS_TYPE":0,"CLASSIFICATION_TYPE":"U","NORAD_CAT_ID":30104,"ELEMENT_SET_NO":999,"REV_AT_EPOCH":99079,"BSTAR":0.00073132841,"MEAN_MOTION_DOT":1.752e-5,"MEAN_MOTION_DDOT":0},{"OBJECT_NAME":"FENGYUN 1C DEB","OBJECT_ID":"1999-025RJ","EPOCH":"2026-03-06T10:16:09.923232","MEAN_MOTION":14.21618716,"ECCENTRICITY":0.01979191,"INCLINATION":98.6041,"RA_OF_ASC_NODE":54.3666,"ARG_OF_PERICENTER":190.9123,"MEAN_ANOMALY":168.7731,"EPHEMERIS_TYPE":0,"CLASSIFICATION_TYPE":"U","NORAD_CAT_ID":30105,"ELEMENT_SET_NO":999,"REV_AT_EPOCH":98951,"BSTAR":0.00026576722,"MEAN_MOTION_DOT":6.66e-6,"MEAN_MOTION_DDOT":0},{"OBJECT_NAME":"FENGYUN 1C DEB","OBJECT_ID":"1999-025RK","EPOCH":"2026-03-06T07:58:50.228256","MEAN_MOTION":14.94818204,"ECCENTRICITY":0.00388703,"INCLINATION":98.9208,"RA_OF_ASC_NODE":348.2845,"ARG_OF_PERICENTER":296.0552,"MEAN_ANOMALY":182.4369,"EPHEMERIS_TYPE":0,"CLASSIFICATION_TYPE":"U","NORAD_CAT_ID":30106,"ELEMENT_SET_NO":999,"REV_AT_EPOCH":99789,"BSTAR":0.0062865533,"MEAN_MOTION_DOT":0.00070031,"MEAN_MOTION_DDOT":0}]
